{"fetched_at":"2026-07-15T06:35:42.366Z","source":"https://celestrak.org/NORAD/elements/gp.php?GROUP=spire&FORMAT=JSON","constellation":"spire","records":[{"OBJECT_NAME":"LEMUR-2-VALHALLA","OBJECT_ID":"2024-022B","EPOCH":"2026-07-14T21:12:28.356192","CLASSIFICATION_TYPE":"U","MEAN_MOTION":15.40481564,"ECCENTRICITY":0.00092384,"INCLINATION":97.4076,"RA_OF_ASC_NODE":46.2208,"ARG_OF_PERICENTER":25.2349,"MEAN_ANOMALY":334.9347,"EPHEMERIS_TYPE":0,"NORAD_CAT_ID":58900,"ELEMENT_SET_NO":999,"REV_AT_EPOCH":13653,"BSTAR":0.000225276,"MEAN_MOTION_DOT":0.00009059,"MEAN_MOTION_DDOT":0},{"OBJECT_NAME":"LEMUR-2-CAEL","OBJECT_ID":"2024-022E","EPOCH":"2026-07-14T13:04:51.796416","CLASSIFICATION_TYPE":"U","MEAN_MOTION":15.4184213,"ECCENTRICITY":0.0007196,"INCLINATION":97.4059,"RA_OF_ASC_NODE":46.8629,"ARG_OF_PERICENTER":12.0765,"MEAN_ANOMALY":348.0653,"EPHEMERIS_TYPE":0,"NORAD_CAT_ID":58903,"ELEMENT_SET_NO":999,"REV_AT_EPOCH":13655,"BSTAR":0.00024854,"MEAN_MOTION_DOT":0.00010462,"MEAN_MOTION_DDOT":0},{"OBJECT_NAME":"LEMUR-2-JOHNNYTRUONG","OBJECT_ID":"2024-043BA","EPOCH":"2026-07-14T21:32:40.944768","CLASSIFICATION_TYPE":"U","MEAN_MOTION":15.62544741,"ECCENTRICITY":0.0004103,"INCLINATION":97.539,"RA_OF_ASC_NODE":349.3635,"ARG_OF_PERICENTER":94.8914,"MEAN_ANOMALY":265.2812,"EPHEMERIS_TYPE":0,"NORAD_CAT_ID":59146,"ELEMENT_SET_NO":999,"REV_AT_EPOCH":13236,"BSTAR":0.0003107967,"MEAN_MOTION_DOT":0.00027619,"MEAN_MOTION_DDOT":0},{"OBJECT_NAME":"LEMUR-2-TOMATOKECHUP","OBJECT_ID":"2024-149D","EPOCH":"2026-07-14T18:56:00.133152","CLASSIFICATION_TYPE":"U","MEAN_MOTION":15.36577548,"ECCENTRICITY":0.00032762,"INCLINATION":97.3802,"RA_OF_ASC_NODE":277.9151,"ARG_OF_PERICENTER":123.0266,"MEAN_ANOMALY":237.1294,"EPHEMERIS_TYPE":0,"NORAD_CAT_ID":60471,"ELEMENT_SET_NO":999,"REV_AT_EPOCH":10640,"BSTAR":0.00017737784,"MEAN_MOTION_DOT":0.00006252,"MEAN_MOTION_DDOT":0},{"OBJECT_NAME":"LEMUR-2-STELLA","OBJECT_ID":"2024-149BT","EPOCH":"2026-07-14T19:25:05.152224","CLASSIFICATION_TYPE":"U","MEAN_MOTION":15.12366864,"ECCENTRICITY":0.00012381,"INCLINATION":97.6739,"RA_OF_ASC_NODE":278.3948,"ARG_OF_PERICENTER":117.006,"MEAN_ANOMALY":243.1297,"EPHEMERIS_TYPE":0,"NORAD_CAT_ID":60533,"ELEMENT_SET_NO":999,"REV_AT_EPOCH":10467,"BSTAR":0.00032835338,"MEAN_MOTION_DOT":0.00005629,"MEAN_MOTION_DDOT":0},{"OBJECT_NAME":"LEMUR-2-MARHISYAM","OBJECT_ID":"2024-149BW","EPOCH":"2026-07-14T19:11:46.847328","CLASSIFICATION_TYPE":"U","MEAN_MOTION":15.11772815,"ECCENTRICITY":0.00025357,"INCLINATION":97.6884,"RA_OF_ASC_NODE":278.8613,"ARG_OF_PERICENTER":69.4744,"MEAN_ANOMALY":290.6758,"EPHEMERIS_TYPE":0,"NORAD_CAT_ID":60536,"ELEMENT_SET_NO":999,"REV_AT_EPOCH":10465,"BSTAR":0.00032155766,"MEAN_MOTION_DOT":0.00005421,"MEAN_MOTION_DDOT":0},{"OBJECT_NAME":"LEMUR-2-AHMED-ASRAR","OBJECT_ID":"2024-149DN","EPOCH":"2026-07-14T19:21:43.600032","CLASSIFICATION_TYPE":"U","MEAN_MOTION":15.13301229,"ECCENTRICITY":0.00011348,"INCLINATION":97.7008,"RA_OF_ASC_NODE":281.0702,"ARG_OF_PERICENTER":205.8662,"MEAN_ANOMALY":154.2512,"EPHEMERIS_TYPE":0,"NORAD_CAT_ID":60576,"ELEMENT_SET_NO":999,"REV_AT_EPOCH":10474,"BSTAR":0.00033683509,"MEAN_MOTION_DOT":0.0000593,"MEAN_MOTION_DDOT":0},{"OBJECT_NAME":"LEMUR-2-LLOYD","OBJECT_ID":"2024-149DP","EPOCH":"2026-07-14T22:47:42.190368","CLASSIFICATION_TYPE":"U","MEAN_MOTION":15.09748859,"ECCENTRICITY":0.00048058,"INCLINATION":97.675,"RA_OF_ASC_NODE":277.102,"ARG_OF_PERICENTER":73.1029,"MEAN_ANOMALY":287.0726,"EPHEMERIS_TYPE":0,"NORAD_CAT_ID":60577,"ELEMENT_SET_NO":999,"REV_AT_EPOCH":10458,"BSTAR":0.00032900214,"MEAN_MOTION_DOT":0.00005245,"MEAN_MOTION_DDOT":0},{"OBJECT_NAME":"LEMUR-2-SQUIRRELCOMM","OBJECT_ID":"2024-149DQ","EPOCH":"2026-07-14T17:44:00.224736","CLASSIFICATION_TYPE":"U","MEAN_MOTION":15.07444509,"ECCENTRICITY":0.00040921,"INCLINATION":97.6714,"RA_OF_ASC_NODE":276.5676,"ARG_OF_PERICENTER":330.3631,"MEAN_ANOMALY":29.7364,"EPHEMERIS_TYPE":0,"NORAD_CAT_ID":60578,"ELEMENT_SET_NO":999,"REV_AT_EPOCH":10455,"BSTAR":0.00016827449,"MEAN_MOTION_DOT":0.00002486,"MEAN_MOTION_DDOT":0},{"OBJECT_NAME":"LEMUR-2-SIERRINI","OBJECT_ID":"2024-149DR","EPOCH":"2026-07-14T18:17:57.250752","CLASSIFICATION_TYPE":"U","MEAN_MOTION":15.11508075,"ECCENTRICITY":0.00064905,"INCLINATION":97.6848,"RA_OF_ASC_NODE":278.4856,"ARG_OF_PERICENTER":91.8532,"MEAN_ANOMALY":268.3442,"EPHEMERIS_TYPE":0,"NORAD_CAT_ID":60579,"ELEMENT_SET_NO":999,"REV_AT_EPOCH":10462,"BSTAR":0.00036694428,"MEAN_MOTION_DOT":0.00006152,"MEAN_MOTION_DDOT":0},{"OBJECT_NAME":"LEMUR-2-WILSON","OBJECT_ID":"2025-009CP","EPOCH":"2026-07-14T17:36:06.814944","CLASSIFICATION_TYPE":"U","MEAN_MOTION":14.95275839,"ECCENTRICITY":0.00020495,"INCLINATION":97.7021,"RA_OF_ASC_NODE":273.7153,"ARG_OF_PERICENTER":327.3047,"MEAN_ANOMALY":32.8047,"EPHEMERIS_TYPE":0,"NORAD_CAT_ID":62694,"ELEMENT_SET_NO":999,"REV_AT_EPOCH":8147,"BSTAR":0.000066876169,"MEAN_MOTION_DOT":0.0000068,"MEAN_MOTION_DDOT":0},{"OBJECT_NAME":"LEMUR-2-STAR-FOX","OBJECT_ID":"2025-009CR","EPOCH":"2026-07-14T17:27:24.056928","CLASSIFICATION_TYPE":"U","MEAN_MOTION":15.02837553,"ECCENTRICITY":0.00022908,"INCLINATION":97.6911,"RA_OF_ASC_NODE":277.1384,"ARG_OF_PERICENTER":44.2985,"MEAN_ANOMALY":315.8423,"EPHEMERIS_TYPE":0,"NORAD_CAT_ID":62696,"ELEMENT_SET_NO":999,"REV_AT_EPOCH":8169,"BSTAR":0.00026190995,"MEAN_MOTION_DOT":0.00003448,"MEAN_MOTION_DDOT":0},{"OBJECT_NAME":"LEMUR-2-ARIANNA","OBJECT_ID":"2025-009CU","EPOCH":"2026-07-14T22:12:49.742208","CLASSIFICATION_TYPE":"U","MEAN_MOTION":15.02840885,"ECCENTRICITY":0.00025542,"INCLINATION":97.6853,"RA_OF_ASC_NODE":277.0874,"ARG_OF_PERICENTER":51.0319,"MEAN_ANOMALY":309.1133,"EPHEMERIS_TYPE":0,"NORAD_CAT_ID":62699,"ELEMENT_SET_NO":999,"REV_AT_EPOCH":8172,"BSTAR":0.00028634331,"MEAN_MOTION_DOT":0.00003776,"MEAN_MOTION_DDOT":0},{"OBJECT_NAME":"LEMUR-2-ALISIA","OBJECT_ID":"2025-009DB","EPOCH":"2026-07-14T18:21:24.558912","CLASSIFICATION_TYPE":"U","MEAN_MOTION":15.03171742,"ECCENTRICITY":0.00042214,"INCLINATION":97.6972,"RA_OF_ASC_NODE":277.7525,"ARG_OF_PERICENTER":129.6014,"MEAN_ANOMALY":230.5584,"EPHEMERIS_TYPE":0,"NORAD_CAT_ID":62706,"ELEMENT_SET_NO":999,"REV_AT_EPOCH":10430,"BSTAR":0.0003313407,"MEAN_MOTION_DOT":0.00004418,"MEAN_MOTION_DDOT":0},{"OBJECT_NAME":"LEMUR-2-ROUNDTRIPPER","OBJECT_ID":"2025-009DG","EPOCH":"2026-07-14T18:29:19.053888","CLASSIFICATION_TYPE":"U","MEAN_MOTION":15.04228089,"ECCENTRICITY":0.00044444,"INCLINATION":97.7254,"RA_OF_ASC_NODE":278.4154,"ARG_OF_PERICENTER":64.589,"MEAN_ANOMALY":295.5795,"EPHEMERIS_TYPE":0,"NORAD_CAT_ID":62711,"ELEMENT_SET_NO":999,"REV_AT_EPOCH":8177,"BSTAR":0.00034951456,"MEAN_MOTION_DOT":0.00004798,"MEAN_MOTION_DDOT":0},{"OBJECT_NAME":"LEMUR-2-MYNAMEISJEFF","OBJECT_ID":"2025-009DH","EPOCH":"2026-07-14T18:27:08.106048","CLASSIFICATION_TYPE":"U","MEAN_MOTION":15.04219262,"ECCENTRICITY":0.00040322,"INCLINATION":97.7303,"RA_OF_ASC_NODE":278.8116,"ARG_OF_PERICENTER":98.2906,"MEAN_ANOMALY":261.8777,"EPHEMERIS_TYPE":0,"NORAD_CAT_ID":62712,"ELEMENT_SET_NO":999,"REV_AT_EPOCH":8177,"BSTAR":0.00034530952,"MEAN_MOTION_DOT":0.00004738,"MEAN_MOTION_DDOT":0}]}
